{
  "norad_id": 58671,
  "name": "STARLINK-30828",
  "history": [
    {
      "epoch": "2026-03-28T17:09:27.639072Z",
      "apogee_km": 483.7296733169733,
      "perigee_km": 482.45746394493744,
      "latitude_deg": 3.291929440058041e-05,
      "longitude_deg": -105.60770432593142,
      "height_km": 482.7756304103446,
      "semi_major_axis_km": 6861.230568630955,
      "eccentricity": 9.271e-05,
      "inclination_deg": 43.0008,
      "raan_deg": 337.8888,
      "arg_perigee_deg": 278.5275,
      "mean_anomaly_deg": 81.5472,
      "mean_motion_rev_day": 15.27565148
    },
    {
      "epoch": "2026-03-29T01:00:14.389344Z",
      "apogee_km": 483.5586127936622,
      "perigee_km": 482.5843211913498,
      "latitude_deg": 2.371414399001192e-05,
      "longitude_deg": 134.5291560744224,
      "height_km": 482.72984863388723,
      "semi_major_axis_km": 6861.208466992506,
      "eccentricity": 7.1e-05,
      "inclination_deg": 43.0017,
      "raan_deg": 336.0427,
      "arg_perigee_deg": 284.006,
      "mean_anomaly_deg": 76.0713,
      "mean_motion_rev_day": 15.27572529
    },
    {
      "epoch": "2026-03-30T00:32:34.155456Z",
      "apogee_km": 483.8072714058753,
      "perigee_km": 482.2226197525242,
      "latitude_deg": 4.2033328707725056e-05,
      "longitude_deg": 134.94081217225352,
      "height_km": 482.8161011911311,
      "semi_major_axis_km": 6861.1519455791995,
      "eccentricity": 0.00011548,
      "inclination_deg": 43.0032,
      "raan_deg": 330.5034,
      "arg_perigee_deg": 268.2415,
      "mean_anomaly_deg": 91.8305,
      "mean_motion_rev_day": 15.27591405
    },
    {
      "epoch": "2026-03-30T08:23:21.095808Z",
      "apogee_km": 483.8328895157729,
      "perigee_km": 482.2120092074556,
      "latitude_deg": -2.3127623181661443e-05,
      "longitude_deg": 15.076719206684869,
      "height_km": 482.77872043969256,
      "semi_major_axis_km": 6861.159449361614,
      "eccentricity": 0.00011812,
      "inclination_deg": 43.0034,
      "raan_deg": 328.6572,
      "arg_perigee_deg": 271.4586,
      "mean_anomaly_deg": 88.613,
      "mean_motion_rev_day": 15.27588899
    },
    {
      "epoch": "2026-03-30T22:30:46.120320Z",
      "apogee_km": 483.4342000573597,
      "perigee_km": 482.65175109294523,
      "latitude_deg": 3.28917415191978e-06,
      "longitude_deg": 159.319842878073,
      "height_km": 482.90573789035557,
      "semi_major_axis_km": 6861.179975575152,
      "eccentricity": 5.702e-05,
      "inclination_deg": 43.0042,
      "raan_deg": 325.3346,
      "arg_perigee_deg": 257.2484,
      "mean_anomaly_deg": 102.8304,
      "mean_motion_rev_day": 15.27582044
    },
    {
      "epoch": "2026-03-31T07:55:42.896640Z",
      "apogee_km": 483.7691301150744,
      "perigee_km": 482.3524299974488,
      "latitude_deg": 4.6954560944631783e-07,
      "longitude_deg": 15.478880424259613,
      "height_km": 482.71917418937664,
      "semi_major_axis_km": 6861.197780056261,
      "eccentricity": 0.00010324,
      "inclination_deg": 43.0039,
      "raan_deg": 323.1169,
      "arg_perigee_deg": 279.6248,
      "mean_anomaly_deg": 80.4487,
      "mean_motion_rev_day": 15.27576098
    },
    {
      "epoch": "2026-04-01T01:11:25.700928Z",
      "apogee_km": 483.86533779116417,
      "perigee_km": 482.2016411708755,
      "latitude_deg": 6.41962443836172e-05,
      "longitude_deg": 111.7788775415065,
      "height_km": 482.86702060817044,
      "semi_major_axis_km": 6861.17048948102,
      "eccentricity": 0.00012124,
      "inclination_deg": 43.0041,
      "raan_deg": 319.0541,
      "arg_perigee_deg": 266.1021,
      "mean_anomaly_deg": 93.9693,
      "mean_motion_rev_day": 15.27585212
    },
    {
      "epoch": "2026-04-02T21:07:47.811072Z",
      "apogee_km": 484.0238107992054,
      "perigee_km": 482.0573972978864,
      "latitude_deg": 3.496431731392532e-05,
      "longitude_deg": 160.5429924389941,
      "height_km": 482.8356401761499,
      "semi_major_axis_km": 6861.177604048546,
      "eccentricity": 0.0001433,
      "inclination_deg": 43.0046,
      "raan_deg": 308.7149,
      "arg_perigee_deg": 268.9626,
      "mean_anomaly_deg": 91.1062,
      "mean_motion_rev_day": 15.27582836
    },
    {
      "epoch": "2026-04-02T22:41:56.920416Z",
      "apogee_km": 483.83584899884045,
      "perigee_km": 482.2045402642434,
      "latitude_deg": 3.5823608917931186e-05,
      "longitude_deg": 136.57199317039704,
      "height_km": 482.8194955945452,
      "semi_major_axis_km": 6861.157194631542,
      "eccentricity": 0.00011888,
      "inclination_deg": 43.0031,
      "raan_deg": 308.3463,
      "arg_perigee_deg": 268.4235,
      "mean_anomaly_deg": 91.6481,
      "mean_motion_rev_day": 15.27589652
    },
    {
      "epoch": "2026-04-03T14:23:32.085888Z",
      "apogee_km": 483.8219750573189,
      "perigee_km": 482.3221147601007,
      "latitude_deg": -2.623620216131061e-05,
      "longitude_deg": -103.1592885949833,
      "height_km": 482.5266056503418,
      "semi_major_axis_km": 6861.209044908709,
      "eccentricity": 0.0001093,
      "inclination_deg": 42.9993,
      "raan_deg": 304.6561,
      "arg_perigee_deg": 295.4074,
      "mean_anomaly_deg": 64.6664,
      "mean_motion_rev_day": 15.27572336
    },
    {
      "epoch": "2026-04-03T23:48:28.718784Z",
      "apogee_km": 483.86970095294055,
      "perigee_km": 482.29683481873144,
      "latitude_deg": -4.207375787516613e-05,
      "longitude_deg": 113.00233373923417,
      "height_km": 482.50110967795575,
      "semi_major_axis_km": 6861.220267885836,
      "eccentricity": 0.00011462,
      "inclination_deg": 42.9996,
      "raan_deg": 302.4404,
      "arg_perigee_deg": 297.1239,
      "mean_anomaly_deg": 62.9495,
      "mean_motion_rev_day": 15.27568588
    }
  ]
}